OBJECT_NAME,OBJECT_ID,EPOCH,MEAN_MOTION,ECCENTRICITY,INCLINATION,RA_OF_ASC_NODE,ARG_OF_PERICENTER,MEAN_ANOMALY,EPHEMERIS_TYPE,CLASSIFICATION_TYPE,NORAD_CAT_ID,ELEMENT_SET_NO,REV_AT_EPOCH,BSTAR,MEAN_MOTION_DOT,MEAN_MOTION_DDOT
SL-14 R/B,1990-010B,2026-07-05T09:03:29.284992,14.83659147,.00181732,82.5026,156.8616,272.3147,87.5987,0,U,20466,999,94593,.5966022E-4,.517E-5,0
HST,1990-037B,2026-07-05T14:13:02.273952,15.30982835,.00017844,28.4737,314.7660,9.1068,350.9560,0,U,20580,999,79139,.29413006E-3,.9303E-4,0
SL-16 R/B,1990-046B,2026-07-05T01:04:58.181376,14.15023615,.00124828,70.9988,51.4436,132.3197,227.8985,0,U,20625,999,86499,-.61979193E-4,-.168E-5,0
COSMOS 2084,1990-055A,2026-07-05T07:39:54.391392,15.06198829,.00068984,62.7909,294.1997,307.6915,52.3560,0,U,20663,999,95403,.22897722E-3,.3173E-4,0
SL-6 R/B(2),1990-055D,2026-07-05T07:59:29.934240,15.04062899,.00436405,62.7808,213.6253,7.6023,352.5728,0,U,20666,999,95588,.19340234E-3,.2538E-4,0
SL-8 R/B,1991-006B,2026-07-05T05:36:44.720352,13.77508018,.00238031,82.9419,82.6084,66.9749,51.4218,0,U,21088,999,78025,.89265386E-4,.104E-5,0
OKEAN-3,1991-039A,2026-07-05T13:13:29.889696,15.05406412,.00120408,82.5140,222.5730,290.4341,69.5593,0,U,21397,999,88276,.19483521E-3,.2825E-4,0
COSMOS 2151,1991-042A,2026-07-05T09:34:23.001312,15.00493555,.00129431,82.4978,330.1042,28.1504,332.0417,0,U,21422,999,88084,.19785306E-3,.2522E-4,0
SL-14 R/B,1991-042B,2026-07-05T09:12:51.979680,14.81914610,.00161185,82.4936,109.8322,209.8294,150.2003,0,U,21423,999,87050,.58027648E-4,.483E-5,0
ERS-1,1991-050A,2026-07-05T12:21:15.764256,14.39528868,.00312923,98.7794,207.6604,210.7652,149.1702,0,U,21574,999,83268,.10940662E-3,.297E-5,0
ARIANE 40 R/B,1991-050F,2026-07-05T03:32:14.877024,14.42968366,.00044307,98.1865,233.8640,83.0172,277.1522,0,U,21610,999,83593,.1299409E-3,.393E-5,0
INTERCOSMOS 25,1991-086A,2026-07-04T14:38:33.503136,12.12225175,.14840809,82.6025,239.2665,224.7723,122.3819,0,U,21819,999,51085,.25563822E-3,.1291E-4,0
SL-8 R/B,1992-008B,2026-07-05T11:18:45.448704,13.75981831,.00350676,82.9262,180.1926,163.2748,1.5865,0,U,21876,999,72561,.15928246E-3,.171E-5,0
SL-8 R/B,1992-020B,2026-07-05T04:14:39.720768,13.75550279,.00284825,82.9295,66.4944,332.4796,141.7009,0,U,21938,999,71728,.28124937E-4,.42E-6,0
USA 81,1992-023A,2026-07-05T03:47:33.017856,14.32403273,.00023972,85.0061,63.6345,69.9166,290.2285,0,U,21949,999,11160,.68636931E-4,.205E-5,0
COSMOS 2219,1992-076A,2026-07-05T07:11:04.664256,14.14109979,.0017603,71.0611,132.2089,13.4279,346.7308,0,U,22219,999,73500,.66047922E-4,.79E-6,0
SL-16 R/B,1992-076B,2026-07-05T07:24:48.622176,14.16874118,.00150295,71.0011,300.6067,274.8795,114.9520,0,U,22220,999,73849,.6472655E-5,-.35E-6,0
COSMOS 2221,1992-080A,2026-07-05T09:24:57.052800,14.96586028,.00149477,82.5036,166.3219,150.7188,209.4875,0,U,22236,999,79839,.17970287E-3,.2075E-4,0
SL-16 R/B,1992-093B,2026-07-05T06:18:57.118176,14.15466211,.0002891,71.0220,117.4449,155.2213,204.9049,0,U,22285,999,72979,.12835245E-3,.203E-5,0
COSMOS 2228,1992-094A,2026-07-05T07:52:21.645984,14.97655678,.00159569,82.5188,124.6669,265.6234,94.3165,0,U,22286,999,79366,.22091103E-3,.2616E-4,0
SL-16 R/B,1993-059B,2026-07-05T06:37:39.297792,14.17251033,.00161185,70.9904,123.1576,24.1528,336.0348,0,U,22803,999,69619,.94795909E-4,.144E-5,0
ARIANE 40 R/B,1993-061H,2026-07-05T03:37:43.229856,14.32915927,.0009545,98.4810,252.6345,299.3725,60.6506,0,U,22830,999,71092,.11758001E-3,.278E-5,0
COSMOS 2278,1994-023A,2026-07-05T08:26:46.395168,14.14395627,.00101053,71.0543,288.9205,220.4835,139.5537,0,U,23087,999,66144,-.85692332E-4,-.211E-5,0
SL-16 R/B,1994-023B,2026-07-05T06:35:50.673984,14.15025395,.00016433,70.9977,183.9453,162.4446,197.6733,0,U,23088,999,66272,-.83798644E-4,-.21E-5,0
SL-16 R/B,1994-074B,2026-07-05T01:30:27.527040,14.79518732,.00062678,97.6985,212.0384,185.9207,198.9903,0,U,23343,999,70460,.83831271E-4,.578E-5,0
