SL-14 R/B               
1 20466U 90010B   26186.37742227  .00000517  00000+0  59660-4 0  9997
2 20466  82.5026 156.8616 0018173 272.3147  87.5987 14.83659147945934
HST                     
1 20580U 90037B   26186.59238743  .00009303  00000+0  29413-3 0  9994
2 20580  28.4737 314.7660 0001784   9.1068 350.9560 15.30982835791390
SL-16 R/B               
1 20625U 90046B   26186.04511784 -.00000168  00000+0 -61979-4 0  9999
2 20625  70.9988  51.4436 0012483 132.3197 227.8985 14.15023615864990
COSMOS 2084             
1 20663U 90055A   26186.31937953  .00003173  00000+0  22898-3 0  9994
2 20663  62.7909 294.1997 0006898 307.6915  52.3560 15.06198829954036
SL-6 R/B(2)             
1 20666U 90055D   26186.33298535  .00002538  00000+0  19340-3 0  9997
2 20666  62.7808 213.6253 0043641   7.6023 352.5728 15.04062899955882
SL-8 R/B                
1 21088U 91006B   26186.23385093  .00000104  00000+0  89265-4 0  9999
2 21088  82.9419  82.6084 0023803  66.9749  51.4218 13.77508018780252
OKEAN-3                 
1 21397U 91039A   26186.55104039  .00002825  00000+0  19484-3 0  9999
2 21397  82.5140 222.5730 0012040 290.4341  69.5593 15.05406412882761
COSMOS 2151             
1 21422U 91042A   26186.39887733  .00002522  00000+0  19785-3 0  9991
2 21422  82.4978 330.1042 0012943  28.1504 332.0417 15.00493555880848
SL-14 R/B               
1 21423U 91042B   26186.38393494  .00000483  00000+0  58028-4 0  9995
2 21423  82.4936 109.8322 0016119 209.8294 150.2003 14.81914610870509
ERS-1                   
1 21574U 91050A   26186.51476579  .00000297  00000+0  10941-3 0  9996
2 21574  98.7794 207.6604 0031292 210.7652 149.1702 14.39528868832685
ARIANE 40 R/B           
1 21610U 91050F   26186.14739441  .00000393  00000+0  12994-3 0  9993
2 21610  98.1865 233.8640 0004431  83.0172 277.1522 14.42968366835931
INTERCOSMOS 25          
1 21819U 91086A   26185.61010999  .00001291  00000+0  25564-3 0  9999
2 21819  82.6025 239.2665 1484080 224.7723 122.3819 12.12225175510854
SL-8 R/B                
1 21876U 92008B   26186.47135935  .00000171  00000+0  15928-3 0  9999
2 21876  82.9262 180.1926 0035068 163.2748   1.5865 13.75981831725617
SL-8 R/B                
1 21938U 92020B   26186.17684861  .00000042  00000+0  28125-4 0  9997
2 21938  82.9295  66.4944 0028483 332.4796 141.7009 13.75550279717283
USA 81                  
1 21949U 92023A   26186.15802103  .00000205  00000+0  68637-4 0  9994
2 21949  85.0061  63.6345 0002397  69.9166 290.2285 14.32403273111608
COSMOS 2219             
1 22219U 92076A   26186.29935954  .00000079  00000+0  66048-4 0  9992
2 22219  71.0611 132.2089 0017603  13.4279 346.7308 14.14109978735002
SL-16 R/B               
1 22220U 92076B   26186.30889609 -.00000035  00000+0  64727-5 0  9997
2 22220  71.0011 300.6067 0015029 274.8795 114.9520 14.16874118738495
COSMOS 2221             
1 22236U 92080A   26186.39232699  .00002075  00000+0  17970-3 0  9990
2 22236  82.5036 166.3219 0014948 150.7188 209.4875 14.96586028798395
SL-16 R/B               
1 22285U 92093B   26186.26316109  .00000203  00000+0  12835-3 0  9999
2 22285  71.0220 117.4449 0002891 155.2213 204.9049 14.15466211729795
COSMOS 2228             
1 22286U 92094A   26186.32802830  .00002616  00000+0  22091-3 0  9994
2 22286  82.5188 124.6669 0015957 265.6234  94.3165 14.97655678793660
SL-16 R/B               
1 22803U 93059B   26186.27614927  .00000144  00000+0  94796-4 0  9999
2 22803  70.9904 123.1576 0016119  24.1528 336.0348 14.17251032696195
ARIANE 40 R/B           
1 22830U 93061H   26186.15119478  .00000278  00000+0  11758-3 0  9994
2 22830  98.4810 252.6345 0009545 299.3725  60.6506 14.32915927710929
COSMOS 2278             
1 23087U 94023A   26186.35192587 -.00000211  00000+0 -85692-4 0  9990
2 23087  71.0543 288.9205 0010105 220.4835 139.5537 14.14395627661443
SL-16 R/B               
1 23088U 94023B   26186.27489205 -.00000210  00000+0 -83799-4 0  9993
2 23088  70.9977 183.9453 0001643 162.4446 197.6733 14.15025395662720
SL-16 R/B               
1 23343U 94074B   26186.06281860  .00000578  00000+0  83831-4 0  9999
2 23343  97.6985 212.0384 0006268 185.9207 198.9903 14.79518732704608
